{
  "type": "FeatureCollection",
  "features": [
    {
      "type": "Feature",
      "properties": {
        "norad_id": 33376,
        "name": "GALAXY 19 (G-19)",
        "group": "intelsat",
        "lat": 0.029887340642002606,
        "lon": 55.47145280026282,
        "alt_km": 35794.23757393957,
        "timestamp": "2025-12-26T03:50:11.755414+00:00",
        "meta_object_name": "GALAXY 19 (G-19)",
        "meta_object_id": "2008-045A",
        "meta_epoch": "2025-12-25T10:42:38.666304",
        "meta_mean_motion": 1.00271832,
        "meta_eccentricity": 0.0002747,
        "meta_inclination": 0.0408,
        "meta_ra_of_asc_node": 264.6224,
        "meta_arg_of_pericenter": 16.378,
        "meta_mean_anomaly": 236.8641,
        "meta_ephemeris_type": 0,
        "meta_classification_type": "U",
        "meta_norad_cat_id": 33376,
        "meta_element_set_no": 999,
        "meta_rev_at_epoch": 6316,
        "meta_bstar": 0,
        "meta_mean_motion_dot": -1.18e-06,
        "meta_mean_motion_ddot": 0,
        "tle_line1": "1 33376U 08045A   25359.44628086 -.00000118  00000+0  00000+0 0  9990",
        "tle_line2": "2 33376   0.0408 264.6224 0002747  16.3780 236.8641  1.00271832 63167"
      },
      "geometry": {
        "type": "Point",
        "coordinates": [
          55.47145280026282,
          0.029887340642002606
        ]
      }
    },
    {
      "type": "Feature",
      "properties": {
        "norad_id": 35493,
        "name": "FM-5",
        "group": "intelsat",
        "lat": 0.02076527380103827,
        "lon": 66.28713921076486,
        "alt_km": 35786.925724007335,
        "timestamp": "2025-12-26T03:50:11.755426+00:00",
        "meta_object_name": "FM-5",
        "meta_object_id": "2009-034A",
        "meta_epoch": "2025-12-25T03:12:43.263648",
        "meta_mean_motion": 1.00269775,
        "meta_eccentricity": 8.51e-05,
        "meta_inclination": 0.0175,
        "meta_ra_of_asc_node": 297.305,
        "meta_arg_of_pericenter": 222.6055,
        "meta_mean_anomaly": 256.0209,
        "meta_ephemeris_type": 0,
        "meta_classification_type": "U",
        "meta_norad_cat_id": 35493,
        "meta_element_set_no": 999,
        "meta_rev_at_epoch": 4489,
        "meta_bstar": 0,
        "meta_mean_motion_dot": -1.79e-06,
        "meta_mean_motion_ddot": 0,
        "tle_line1": "1 35493U 09034A   25359.13383407 -.00000179  00000+0  00000+0 0  9999",
        "tle_line2": "2 35493   0.0175 297.3050 0000851 222.6055 256.0209  1.00269775 44897"
      },
      "geometry": {
        "type": "Point",
        "coordinates": [
          66.28713921076486,
          0.02076527380103827
        ]
      }
    },
    {
      "type": "Feature",
      "properties": {
        "norad_id": 36097,
        "name": "INTELSAT 14 (IS-14)",
        "group": "intelsat",
        "lat": 0.03347139719265356,
        "lon": 107.4200841514359,
        "alt_km": 35798.18326743193,
        "timestamp": "2025-12-26T03:50:11.755437+00:00",
        "meta_object_name": "INTELSAT 14 (IS-14)",
        "meta_object_id": "2009-064A",
        "meta_epoch": "2025-12-24T11:10:22.140192",
        "meta_mean_motion": 1.00269035,
        "meta_eccentricity": 0.0002637,
        "meta_inclination": 0.013,
        "meta_ra_of_asc_node": 11.8022,
        "meta_arg_of_pericenter": 274.0942,
        "meta_mean_anomaly": 289.9229,
        "meta_ephemeris_type": 0,
        "meta_classification_type": "U",
        "meta_norad_cat_id": 36097,
        "meta_element_set_no": 999,
        "meta_rev_at_epoch": 5885,
        "meta_bstar": 0,
        "meta_mean_motion_dot": -2.53e-06,
        "meta_mean_motion_ddot": 0,
        "tle_line1": "1 36097U 09064A   25358.46553403 -.00000253  00000+0  00000+0 0  9996",
        "tle_line2": "2 36097   0.0130  11.8022 0002637 274.0942 289.9229  1.00269035 58854"
      },
      "geometry": {
        "type": "Point",
        "coordinates": [
          107.4200841514359,
          0.03347139719265356
        ]
      }
    },
    {
      "type": "Feature",
      "properties": {
        "norad_id": 36106,
        "name": "INTELSAT 15 (IS-15)",
        "group": "intelsat",
        "lat": -0.011522477902588788,
        "lon": -122.41719873655074,
        "alt_km": 35779.89546924062,
        "timestamp": "2025-12-26T03:50:11.755449+00:00",
        "meta_object_name": "INTELSAT 15 (IS-15)",
        "meta_object_id": "2009-067A",
        "meta_epoch": "2025-12-25T18:35:54.991392",
        "meta_mean_motion": 1.00270322,
        "meta_eccentricity": 0.0002394,
        "meta_inclination": 0.0139,
        "meta_ra_of_asc_node": 50.3473,
        "meta_arg_of_pericenter": 236.5164,
        "meta_mean_anomaly": 171.7997,
        "meta_ephemeris_type": 0,
        "meta_classification_type": "U",
        "meta_norad_cat_id": 36106,
        "meta_element_set_no": 999,
        "meta_rev_at_epoch": 3949,
        "meta_bstar": 0,
        "meta_mean_motion_dot": -1.63e-06,
        "meta_mean_motion_ddot": 0,
        "tle_line1": "1 36106U 09067A   25359.77494203 -.00000163  00000+0  00000+0 0  9997",
        "tle_line2": "2 36106   0.0139  50.3473 0002394 236.5164 171.7997  1.00270322 39491"
      },
      "geometry": {
        "type": "Point",
        "coordinates": [
          -122.41719873655074,
          -0.011522477902588788
        ]
      }
    },
    {
      "type": "Feature",
      "properties": {
        "norad_id": 36131,
        "name": "DIRECTV 12",
        "group": "intelsat",
        "lat": -0.010202422488904095,
        "lon": 49.749552474981286,
        "alt_km": 35785.91028833751,
        "timestamp": "2025-12-26T03:50:11.755461+00:00",
        "meta_object_name": "DIRECTV 12",
        "meta_object_id": "2009-075A",
        "meta_epoch": "2025-12-25T14:17:27.635136",
        "meta_mean_motion": 1.00273448,
        "meta_eccentricity": 5.26e-05,
        "meta_inclination": 0.0362,
        "meta_ra_of_asc_node": 165.2057,
        "meta_arg_of_pericenter": 147.3669,
        "meta_mean_anomaly": 253.4343,
        "meta_ephemeris_type": 0,
        "meta_classification_type": "U",
        "meta_norad_cat_id": 36131,
        "meta_element_set_no": 999,
        "meta_rev_at_epoch": 4481,
        "meta_bstar": 0,
        "meta_mean_motion_dot": -8.2e-07,
        "meta_mean_motion_ddot": 0,
        "tle_line1": "1 36131U 09075A   25359.59545874 -.00000082  00000+0  00000+0 0  9995",
        "tle_line2": "2 36131   0.0362 165.2057 0000526 147.3669 253.4343  1.00273448 44812"
      },
      "geometry": {
        "type": "Point",
        "coordinates": [
          49.749552474981286,
          -0.010202422488904095
        ]
      }
    },
    {
      "type": "Feature",
      "properties": {
        "norad_id": 36397,
        "name": "INTELSAT 16 (IS-16)",
        "group": "intelsat",
        "lat": 0.02671135287161637,
        "lon": 76.27410564924742,
        "alt_km": 35793.993821458345,
        "timestamp": "2025-12-26T03:50:11.755472+00:00",
        "meta_object_name": "INTELSAT 16 (IS-16)",
        "meta_object_id": "2010-006A",
        "meta_epoch": "2025-12-25T04:32:09.998304",
        "meta_mean_motion": 1.00272308,
        "meta_eccentricity": 0.00019441,
        "meta_inclination": 0.0098,
        "meta_ra_of_asc_node": 346.2974,
        "meta_arg_of_pericenter": 284.2377,
        "meta_mean_anomaly": 175.2747,
        "meta_ephemeris_type": 0,
        "meta_classification_type": "U",
        "meta_norad_cat_id": 36397,
        "meta_element_set_no": 999,
        "meta_rev_at_epoch": 5791,
        "meta_bstar": 0,
        "meta_mean_motion_dot": -2.23e-06,
        "meta_mean_motion_ddot": 0,
        "tle_line1": "1 36397U 10006A   25359.18900461 -.00000223  00000+0  00000+0 0  9994",
        "tle_line2": "2 36397   0.0098 346.2974 0001944 284.2377 175.2747  1.00272308 57911"
      },
      "geometry": {
        "type": "Point",
        "coordinates": [
          76.27410564924742,
          0.02671135287161637
        ]
      }
    },
    {
      "type": "Feature",
      "properties": {
        "norad_id": 37185,
        "name": "XM-5",
        "group": "intelsat",
        "lat": 0.0554231858546801,
        "lon": 37.23515068211063,
        "alt_km": 35788.593021175824,
        "timestamp": "2025-12-26T03:50:11.755484+00:00",
        "meta_object_name": "XM-5",
        "meta_object_id": "2010-053A",
        "meta_epoch": "2025-12-25T12:31:00.329376",
        "meta_mean_motion": 1.0027234,
        "meta_eccentricity": 0.0001895,
        "meta_inclination": 0.0637,
        "meta_ra_of_asc_node": 269.6529,
        "meta_arg_of_pericenter": 237.5328,
        "meta_mean_anomaly": 19.6486,
        "meta_ephemeris_type": 0,
        "meta_classification_type": "U",
        "meta_norad_cat_id": 37185,
        "meta_element_set_no": 999,
        "meta_rev_at_epoch": 5574,
        "meta_bstar": 0,
        "meta_mean_motion_dot": -2e-08,
        "meta_mean_motion_ddot": 0,
        "tle_line1": "1 37185U 10053A   25359.52153159 -.00000002  00000+0  00000+0 0  9999",
        "tle_line2": "2 37185   0.0637 269.6529 0001895 237.5328  19.6486  1.00272340 55748"
      },
      "geometry": {
        "type": "Point",
        "coordinates": [
          37.23515068211063,
          0.0554231858546801
        ]
      }
    }
  ]
}